[{"OBJECT_NAME":"STARLINK-6212","OBJECT_ID":"2023-099C","EPOCH":"2026-03-09T11:50:19.267584","MEAN_MOTION":15.02522631,"ECCENTRICITY":0.00015064,"INCLINATION":43.0034,"RA_OF_ASC_NODE":250.3354,"ARG_OF_PERICENTER":273.5434,"MEAN_ANOMALY":86.5236,"EPHEMERIS_TYPE":0,"CLASSIFICATION_TYPE":"U","NORAD_CAT_ID":57330,"ELEMENT_SET_NO":999,"REV_AT_EPOCH":14608,"BSTAR":0.00014518516,"MEAN_MOTION_DOT":1.757e-5,"MEAN_MOTION_DDOT":0},{"OBJECT_NAME":"KORSAT-1","OBJECT_ID":"2024-066L","EPOCH":"2026-03-09T23:36:29.126880","MEAN_MOTION":14.99775855,"ECCENTRICITY":0.00103896,"INCLINATION":45.4118,"RA_OF_ASC_NODE":38.4763,"ARG_OF_PERICENTER":214.4294,"MEAN_ANOMALY":145.5913,"EPHEMERIS_TYPE":0,"CLASSIFICATION_TYPE":"U","NORAD_CAT_ID":59452,"ELEMENT_SET_NO":999,"REV_AT_EPOCH":10517,"BSTAR":0.00047970888,"MEAN_MOTION_DOT":5.797e-5,"MEAN_MOTION_DDOT":0}]
